[{"OBJECT_NAME":"SBSS (USA 216)","OBJECT_ID":"2010-048A","EPOCH":"2026-03-09T21:16:11.917056","MEAN_MOTION":15.1572421,"ECCENTRICITY":0.0082264,"INCLINATION":97.7474,"RA_OF_ASC_NODE":312.3885,"ARG_OF_PERICENTER":184.8326,"MEAN_ANOMALY":306.5835,"EPHEMERIS_TYPE":0,"CLASSIFICATION_TYPE":"U","NORAD_CAT_ID":37168,"ELEMENT_SET_NO":999,"REV_AT_EPOCH":83742,"BSTAR":0.00024191,"MEAN_MOTION_DOT":4.946e-5,"MEAN_MOTION_DDOT":0},{"OBJECT_NAME":"STARLINK-34427","OBJECT_ID":"2025-133AC","EPOCH":"2026-03-09T10:42:55.335456","MEAN_MOTION":15.30190262,"ECCENTRICITY":0.00012115,"INCLINATION":53.1593,"RA_OF_ASC_NODE":117.7455,"ARG_OF_PERICENTER":91.1588,"MEAN_ANOMALY":268.9552,"EPHEMERIS_TYPE":0,"CLASSIFICATION_TYPE":"U","NORAD_CAT_ID":64498,"ELEMENT_SET_NO":999,"REV_AT_EPOCH":4115,"BSTAR":0.00048667063,"MEAN_MOTION_DOT":0.00014078,"MEAN_MOTION_DDOT":0}]
