SBSS (USA 216)          
1 37168U 10048A   26068.88624904  .00004946  00000+0  24191-3 0  9993
2 37168  97.7474 312.3885 0082264 184.8326 306.5835 15.15724210837421
STARLINK-34427          
1 64498U 25133AC  26068.44647379  .00014078  00000+0  48667-3 0  9994
2 64498  53.1593 117.7455 0001211  91.1588 268.9552 15.30190262 41153
